DMSP 5D-3 F16 (USA 172) 
1 28054U 03048A   26117.23688898  .00000084  00000+0  67673-4 0  9997
2 28054  98.9930 140.7195 0005973 295.3241 139.4363 14.14477293162286
METEOSAT-9 (MSG-2)      
1 28912U 05049B   26116.93089426  .00000118  00000+0  00000+0 0  9995
2 28912   9.2489  54.6630 0000512 343.3476 197.6940  1.00275091  6487
DMSP 5D-3 F17 (USA 191) 
1 29522U 06050A   26117.25733474  .00000124  00000+0  86643-4 0  9990
2 29522  98.7395 124.8675 0009698 194.9734 165.1154 14.14982987  5220
FENGYUN 3A              
1 32958U 08026A   26116.80556056  .00000083  00000+0  60171-4 0  9993
2 32958  98.6856  58.6087 0007587 277.8297  82.2018 14.19559822928112
GOES 14                 
1 35491U 09033A   26117.29830434 -.00000059  00000+0  00000+0 0  9990
2 35491   1.5607  83.6238 0001781 314.8685  94.4913  1.00116791  6085
DMSP 5D-3 F18 (USA 210) 
1 35951U 09057A   26117.22508159  .00000284  00000+0  17034-3 0  9994
2 35951  98.9017  98.1136 0011874  40.5096 319.6959 14.14866718852386
EWS-G2 (GOES 15)        
1 36411U 10008A   26117.08288887  .00000013  00000+0  00000+0 0  9992
2 36411   1.1431  83.7693 0003990  23.6677 200.7369  1.00272555 59126
COMS 1                  
1 36744U 10032A   26117.23239168 -.00000350  00000+0  00000+0 0  9998
2 36744   4.6761  76.0354 0001074 315.0546  35.9349  1.00272246 50575
FENGYUN 3B              
1 37214U 10059A   26117.31589213  .00000107  00000+0  78674-4 0  9994
2 37214  98.9674 163.1038 0021618 333.7243  89.8107 14.14830026800232
SUOMI NPP               
1 37849U 11061A   26117.30842736  .00000083  00000+0  60404-4 0  9998
2 37849  98.7927  58.5406 0002771 101.3623 258.7864 14.19506163751229
METEOSAT-10 (MSG-3)     
1 38552U 12035B   26117.12058762 -.00000014  00000+0  00000+0 0  9996
2 38552   4.5534  61.2362 0002096 313.1941 244.2674  1.00268137 50344
METOP-B                 
1 38771U 12049A   26117.22614148  .00000123  00000+0  76174-4 0  9991
2 38771  98.6547 169.7314 0003420 122.5374 237.6134 14.21433454706023
INSAT-3D                
1 39216U 13038B   26117.22683675 -.00000347  00000+0  00000+0 0  9995
2 39216   1.7962  83.1504 0001503 283.7007  59.5527  1.00271797 46563
FENGYUN 3C              
1 39260U 13052A   26117.22926866  .00000099  00000+0  71231-4 0  9994
2 39260  98.4952  93.4543 0014878 165.5464 194.6140 14.15742841651358
METEOR-M 2              
1 40069U 14037A   26117.32370240  .00000448  00000+0  22412-3 0  9991
2 40069  98.5085  94.8735 0005613 172.6702 187.4559 14.21448120612096
HIMAWARI-8              
1 40267U 14060A   26117.22683675  .00000000  00000+0  00000+0 0  9994
2 40267   0.0245 100.4307 0000933 301.3498  35.7687  1.00268401 42240
FENGYUN 2G              
1 40367U 14090A   26116.90893219 -.00000310  00000+0  00000+0 0  9994
2 40367   5.5118  73.4201 0002908 145.2152  63.2783  1.00272409 41489
