[{"OBJECT_NAME":"DMSP 5D-3 F16 (USA 172)","OBJECT_ID":"2003-048A","EPOCH":"2026-04-27T05:41:07.207872","MEAN_MOTION":14.14477293,"ECCENTRICITY":0.00059739,"INCLINATION":98.993,"RA_OF_ASC_NODE":140.7195,"ARG_OF_PERICENTER":295.3241,"MEAN_ANOMALY":139.4363,"EPHEMERIS_TYPE":0,"CLASSIFICATION_TYPE":"U","NORAD_CAT_ID":28054,"ELEMENT_SET_NO":999,"REV_AT_EPOCH":16228,"BSTAR":6.7673196e-5,"MEAN_MOTION_DOT":8.4e-7,"MEAN_MOTION_DDOT":0},{"OBJECT_NAME":"METEOSAT-9 (MSG-2)","OBJECT_ID":"2005-049B","EPOCH":"2026-04-26T22:20:29.264064","MEAN_MOTION":1.00275091,"ECCENTRICITY":5.12e-5,"INCLINATION":9.2489,"RA_OF_ASC_NODE":54.663,"ARG_OF_PERICENTER":343.3476,"MEAN_ANOMALY":197.694,"EPHEMERIS_TYPE":0,"CLASSIFICATION_TYPE":"U","NORAD_CAT_ID":28912,"ELEMENT_SET_NO":999,"REV_AT_EPOCH":648,"BSTAR":0,"MEAN_MOTION_DOT":1.18e-6,"MEAN_MOTION_DDOT":0},{"OBJECT_NAME":"DMSP 5D-3 F17 (USA 191)","OBJECT_ID":"2006-050A","EPOCH":"2026-04-27T06:10:33.721536","MEAN_MOTION":14.14982987,"ECCENTRICITY":0.00096983,"INCLINATION":98.7395,"RA_OF_ASC_NODE":124.8675,"ARG_OF_PERICENTER":194.9734,"MEAN_ANOMALY":165.1154,"EPHEMERIS_TYPE":0,"CLASSIFICATION_TYPE":"U","NORAD_CAT_ID":29522,"ELEMENT_SET_NO":999,"REV_AT_EPOCH":522,"BSTAR":8.6642641e-5,"MEAN_MOTION_DOT":1.24e-6,"MEAN_MOTION_DDOT":0},{"OBJECT_NAME":"FENGYUN 3A","OBJECT_ID":"2008-026A","EPOCH":"2026-04-26T19:20:00.432384","MEAN_MOTION":14.19559822,"ECCENTRICITY":0.00075876,"INCLINATION":98.6856,"RA_OF_ASC_NODE":58.6087,"ARG_OF_PERICENTER":277.8297,"MEAN_ANOMALY":82.2018,"EPHEMERIS_TYPE":0,"CLASSIFICATION_TYPE":"U","NORAD_CAT_ID":32958,"ELEMENT_SET_NO":999,"REV_AT_EPOCH":92811,"BSTAR":6.0171205e-5,"MEAN_MOTION_DOT":8.3e-7,"MEAN_MOTION_DDOT":0},{"OBJECT_NAME":"GOES 14","OBJECT_ID":"2009-033A","EPOCH":"2026-04-27T07:09:33.494976","MEAN_MOTION":1.00116791,"ECCENTRICITY":0.00017816,"INCLINATION":1.5607,"RA_OF_ASC_NODE":83.6238,"ARG_OF_PERICENTER":314.8685,"MEAN_ANOMALY":94.4913,"EPHEMERIS_TYPE":0,"CLASSIFICATION_TYPE":"U","NORAD_CAT_ID":35491,"ELEMENT_SET_NO":999,"REV_AT_EPOCH":608,"BSTAR":0,"MEAN_MOTION_DOT":-5.9e-7,"MEAN_MOTION_DDOT":0},{"OBJECT_NAME":"DMSP 5D-3 F18 (USA 210)","OBJECT_ID":"2009-057A","EPOCH":"2026-04-27T05:24:07.049376","MEAN_MOTION":14.14866718,"ECCENTRICITY":0.00118746,"INCLINATION":98.9017,"RA_OF_ASC_NODE":98.1136,"ARG_OF_PERICENTER":40.5096,"MEAN_ANOMALY":319.6959,"EPHEMERIS_TYPE":0,"CLASSIFICATION_TYPE":"U","NORAD_CAT_ID":35951,"ELEMENT_SET_NO":999,"REV_AT_EPOCH":85238,"BSTAR":0.00017034468,"MEAN_MOTION_DOT":2.84e-6,"MEAN_MOTION_DDOT":0},{"OBJECT_NAME":"EWS-G2 (GOES 15)","OBJECT_ID":"2010-008A","EPOCH":"2026-04-27T01:59:21.598368","MEAN_MOTION":1.00272555,"ECCENTRICITY":0.00039905,"INCLINATION":1.1431,"RA_OF_ASC_NODE":83.7693,"ARG_OF_PERICENTER":23.6677,"MEAN_ANOMALY":200.7369,"EPHEMERIS_TYPE":0,"CLASSIFICATION_TYPE":"U","NORAD_CAT_ID":36411,"ELEMENT_SET_NO":999,"REV_AT_EPOCH":5912,"BSTAR":0,"MEAN_MOTION_DOT":1.3e-7,"MEAN_MOTION_DDOT":0},{"OBJECT_NAME":"COMS 1","OBJECT_ID":"2010-032A","EPOCH":"2026-04-27T05:34:38.641152","MEAN_MOTION":1.00272246,"ECCENTRICITY":0.00010744,"INCLINATION":4.6761,"RA_OF_ASC_NODE":76.0354,"ARG_OF_PERICENTER":315.0546,"MEAN_ANOMALY":35.9349,"EPHEMERIS_TYPE":0,"CLASSIFICATION_TYPE":"U","NORAD_CAT_ID":36744,"ELEMENT_SET_NO":999,"REV_AT_EPOCH":5057,"BSTAR":0,"MEAN_MOTION_DOT":-3.5e-6,"MEAN_MOTION_DDOT":0},{"OBJECT_NAME":"FENGYUN 3B","OBJECT_ID":"2010-059A","EPOCH":"2026-04-27T07:34:53.080032","MEAN_MOTION":14.14830026,"ECCENTRICITY":0.00216189,"INCLINATION":98.9674,"RA_OF_ASC_NODE":163.1038,"ARG_OF_PERICENTER":333.7243,"MEAN_ANOMALY":89.8107,"EPHEMERIS_TYPE":0,"CLASSIFICATION_TYPE":"U","NORAD_CAT_ID":37214,"ELEMENT_SET_NO":999,"REV_AT_EPOCH":80023,"BSTAR":7.8674152e-5,"MEAN_MOTION_DOT":1.07e-6,"MEAN_MOTION_DDOT":0},{"OBJECT_NAME":"SUOMI NPP","OBJECT_ID":"2011-061A","EPOCH":"2026-04-27T07:24:08.123904","MEAN_MOTION":14.19506163,"ECCENTRICITY":0.00027715,"INCLINATION":98.7927,"RA_OF_ASC_NODE":58.5406,"ARG_OF_PERICENTER":101.3623,"MEAN_ANOMALY":258.7864,"EPHEMERIS_TYPE":0,"CLASSIFICATION_TYPE":"U","NORAD_CAT_ID":37849,"ELEMENT_SET_NO":999,"REV_AT_EPOCH":75122,"BSTAR":6.0403656e-5,"MEAN_MOTION_DOT":8.3e-7,"MEAN_MOTION_DDOT":0},{"OBJECT_NAME":"METEOSAT-10 (MSG-3)","OBJECT_ID":"2012-035B","EPOCH":"2026-04-27T02:53:38.770368","MEAN_MOTION":1.00268137,"ECCENTRICITY":0.00020965,"INCLINATION":4.5534,"RA_OF_ASC_NODE":61.2362,"ARG_OF_PERICENTER":313.1941,"MEAN_ANOMALY":244.2674,"EPHEMERIS_TYPE":0,"CLASSIFICATION_TYPE":"U","NORAD_CAT_ID":38552,"ELEMENT_SET_NO":999,"REV_AT_EPOCH":5034,"BSTAR":0,"MEAN_MOTION_DOT":-1.4e-7,"MEAN_MOTION_DDOT":0},{"OBJECT_NAME":"METOP-B","OBJECT_ID":"2012-049A","EPOCH":"2026-04-27T05:25:38.623872","MEAN_MOTION":14.21433454,"ECCENTRICITY":0.00034206,"INCLINATION":98.6547,"RA_OF_ASC_NODE":169.7314,"ARG_OF_PERICENTER":122.5374,"MEAN_ANOMALY":237.6134,"EPHEMERIS_TYPE":0,"CLASSIFICATION_TYPE":"U","NORAD_CAT_ID":38771,"ELEMENT_SET_NO":999,"REV_AT_EPOCH":70602,"BSTAR":7.6173769e-5,"MEAN_MOTION_DOT":1.23e-6,"MEAN_MOTION_DDOT":0},{"OBJECT_NAME":"INSAT-3D","OBJECT_ID":"2013-038B","EPOCH":"2026-04-27T05:26:38.695200","MEAN_MOTION":1.00271797,"ECCENTRICITY":0.00015037,"INCLINATION":1.7962,"RA_OF_ASC_NODE":83.1504,"ARG_OF_PERICENTER":283.7007,"MEAN_ANOMALY":59.5527,"EPHEMERIS_TYPE":0,"CLASSIFICATION_TYPE":"U","NORAD_CAT_ID":39216,"ELEMENT_SET_NO":999,"REV_AT_EPOCH":4656,"BSTAR":0,"MEAN_MOTION_DOT":-3.47e-6,"MEAN_MOTION_DDOT":0},{"OBJECT_NAME":"FENGYUN 3C","OBJECT_ID":"2013-052A","EPOCH":"2026-04-27T05:30:08.812224","MEAN_MOTION":14.15742841,"ECCENTRICITY":0.00148783,"INCLINATION":98.4952,"RA_OF_ASC_NODE":93.4543,"ARG_OF_PERICENTER":165.5464,"MEAN_ANOMALY":194.614,"EPHEMERIS_TYPE":0,"CLASSIFICATION_TYPE":"U","NORAD_CAT_ID":39260,"ELEMENT_SET_NO":999,"REV_AT_EPOCH":65135,"BSTAR":7.123145e-5,"MEAN_MOTION_DOT":9.9e-7,"MEAN_MOTION_DDOT":0},{"OBJECT_NAME":"METEOR-M 2","OBJECT_ID":"2014-037A","EPOCH":"2026-04-27T07:46:07.887360","MEAN_MOTION":14.2144812,"ECCENTRICITY":0.00056133,"INCLINATION":98.5085,"RA_OF_ASC_NODE":94.8735,"ARG_OF_PERICENTER":172.6702,"MEAN_ANOMALY":187.4559,"EPHEMERIS_TYPE":0,"CLASSIFICATION_TYPE":"U","NORAD_CAT_ID":40069,"ELEMENT_SET_NO":999,"REV_AT_EPOCH":61209,"BSTAR":0.00022411517,"MEAN_MOTION_DOT":4.48e-6,"MEAN_MOTION_DDOT":0},{"OBJECT_NAME":"HIMAWARI-8","OBJECT_ID":"2014-060A","EPOCH":"2026-04-27T05:26:38.695200","MEAN_MOTION":1.00268401,"ECCENTRICITY":9.335e-5,"INCLINATION":0.0245,"RA_OF_ASC_NODE":100.4307,"ARG_OF_PERICENTER":301.3498,"MEAN_ANOMALY":35.7687,"EPHEMERIS_TYPE":0,"CLASSIFICATION_TYPE":"U","NORAD_CAT_ID":40267,"ELEMENT_SET_NO":999,"REV_AT_EPOCH":4224,"BSTAR":0,"MEAN_MOTION_DOT":0,"MEAN_MOTION_DDOT":0},{"OBJECT_NAME":"FENGYUN 2G","OBJECT_ID":"2014-090A","EPOCH":"2026-04-26T21:48:51.741216","MEAN_MOTION":1.00272409,"ECCENTRICITY":0.00029081,"INCLINATION":5.5118,"RA_OF_ASC_NODE":73.4201,"ARG_OF_PERICENTER":145.2152,"MEAN_ANOMALY":63.2783,"EPHEMERIS_TYPE":0,"CLASSIFICATION_TYPE":"U","NORAD_CAT_ID":40367,"ELEMENT_SET_NO":999,"REV_AT_EPOCH":4148,"BSTAR":0,"MEAN_MOTION_DOT":-3.1e-6,"MEAN_MOTION_DDOT":0}]
